{"type": "FeatureCollection", "features": [{"type": "Feature", "geometry": {"type": "Point", "coordinates": [-89.09178798269181, 42.24698994978686]}, "properties": {"id": "501-18th-avenue", "address": "501 18th Avenue", "building_name": "Strong  Machinery Corp.", "oz": "Y", "rerz": "N", "tif": "N", "tif_district": null}}, {"type": "Feature", "geometry": {"type": "Point", "coordinates": [-89.10411241496867, 42.26968333662224]}, "properties": {"id": "802-cedar-street", "address": "802 Cedar Street", "building_name": "M.C. Products", "oz": "Y", "rerz": "Y", "tif": "N", "tif_district": "West State and Kilburn"}}, {"type": "Feature", "geometry": {"type": "Point", "coordinates": [-89.10557731274072, 42.27428411063438]}, "properties": {"id": "1034-elm-street", "address": "1034 Elm Street", "building_name": "Rockford Showcase Building", "oz": "Y", "rerz": "Y", "tif": "Y", "tif_district": "West State and Kilburn"}}, {"type": "Feature", "geometry": {"type": "Point", "coordinates": [-89.09871664789132, 42.26363503360189]}, "properties": {"id": "212-mill-street-110", "address": "212 Mill Street (110)", "building_name": "Rockford Foundry", "oz": "N", "rerz": "Y", "tif": "N", "tif_district": "South Rockford"}}, {"type": "Feature", "geometry": {"type": "Point", "coordinates": [-89.08267566694116, 42.24073080891431]}, "properties": {"id": "923-23rd-avenue", "address": "923 23rd Avenue", "building_name": "J.L. Clark", "oz": "N", "rerz": "N", "tif": "Y", "tif_district": "Kishwaukee/Harrison #1"}}, {"type": "Feature", "geometry": {"type": "Point", "coordinates": [-89.0744350093825, 42.25690851088793]}, "properties": {"id": "1439-railroad-avenue", "address": "1439 Railroad Avenue", "building_name": "Ekstrom-Carlson & Company", "oz": "N", "rerz": "N", "tif": "Y", "tif_district": "Midtown"}}, {"type": "Feature", "geometry": {"type": "Point", "coordinates": [-89.11144549950112, 42.27078570563928]}, "properties": {"id": "1310-preston-street", "address": "1310 Preston Street", "building_name": "Twin Disc/Ello", "oz": "Y", "rerz": "N", "tif": "Y", "tif_district": "Preston and Central"}}, {"type": "Feature", "geometry": {"type": "Point", "coordinates": [-89.06770731899506, 42.24738613145122]}, "properties": {"id": "1827-18th-ave", "address": "1827 18th Ave.", "building_name": "Viking Chemical", "oz": "N", "rerz": "N", "tif": "N", "tif_district": null}}, {"type": "Feature", "geometry": {"type": "Point", "coordinates": [-89.0876100664777, 42.240846461968474]}, "properties": {"id": "2415-kishwaukee-street", "address": "2415 Kishwaukee Street", "building_name": "Spengler-Loomis Manufacturing, Boral", "oz": "Y", "rerz": "N", "tif": "Y", "tif_district": null}}, {"type": "Feature", "geometry": {"type": "Point", "coordinates": [-89.07899581585441, 42.247192372435464]}, "properties": {"id": "1221-18th-avenue-incorporated-into-1922-7th-st", "address": "1221 18th Avenue (incorporated into 1922 7th St)", "building_name": "National Lock/Union Furniture", "oz": "N", "rerz": "N", "tif": "N", "tif_district": null}}, {"type": "Feature", "geometry": {"type": "Point", "coordinates": [-89.07610218354785, 42.25737383084836]}, "properties": {"id": "1323-railroad-avenue", "address": "1323 Railroad Avenue", "building_name": "Rockford Chair & Furniture Co.", "oz": "N", "rerz": "N", "tif": "Y", "tif_district": "Midtown"}}, {"type": "Feature", "geometry": {"type": "Point", "coordinates": [-89.07992921403726, 42.24627593618089]}, "properties": {"id": "2020-7th-street", "address": "2020 7th Street", "building_name": "Rockford Process Control", "oz": "N", "rerz": "N", "tif": "N", "tif_district": null}}, {"type": "Feature", "geometry": {"type": "Point", "coordinates": [-89.1172415352772, 42.269157781567486]}, "properties": {"id": "500-s-independence-street", "address": "500 S. Independence\u00a0Street", "building_name": "North/South Warehouse Buildings", "oz": "Y", "rerz": "N", "tif": "Y", "tif_district": "Preston and Central"}}, {"type": "Feature", "geometry": {"type": "Point", "coordinates": [-89.10385424474383, 42.26993314946408]}, "properties": {"id": "631-cedar-street", "address": "631 Cedar Street", "building_name": "Mike Harris Building", "oz": "Y", "rerz": "Y", "tif": "N", "tif_district": "West State and Kilburn"}}, {"type": "Feature", "geometry": {"type": "Point", "coordinates": [-89.06908951201045, 42.24403131729255]}, "properties": {"id": "2136-12th-street", "address": "2136 12th Street", "building_name": "Greenlee Bros. Building", "oz": "N", "rerz": "N", "tif": "N", "tif_district": null}}, {"type": "Feature", "geometry": {"type": "Point", "coordinates": [-89.0764976212832, 42.25692285325446]}, "properties": {"id": "1000-9th-street", "address": "1000 9th Street", "building_name": "Johnson Dahlgren Cabinets", "oz": "N", "rerz": "N", "tif": "Y", "tif_district": "Midtown"}}, {"type": "Feature", "geometry": {"type": "Point", "coordinates": [-89.0973862319835, 42.254484008775165]}, "properties": {"id": "200-sayre-street", "address": "200 Sayre Street", "building_name": "Rockcote/ Valspar\u00a0Building", "oz": "Y", "rerz": "Y", "tif": "Y", "tif_district": "Broadway"}}, {"type": "Feature", "geometry": {"type": "Point", "coordinates": [-89.09750005032011, 42.264642926828834]}, "properties": {"id": "700-s-wyman-street", "address": "700 S. Wyman Street", "building_name": "Rockford Mallable Iron Works", "oz": "N", "rerz": "Y", "tif": "Y", "tif_district": "South Rockford"}}, {"type": "Feature", "geometry": {"type": "Point", "coordinates": [-89.0762322092984, 42.245374749004284]}, "properties": {"id": "1310-20th-ave", "address": "1310 20th Ave", "building_name": "Rockford Drop Forge Shower Facility", "oz": "N", "rerz": "N", "tif": "N", "tif_district": null}}, {"type": "Feature", "geometry": {"type": "Point", "coordinates": [-89.09335731990828, 42.246970474346334]}, "properties": {"id": "333-18th-avenue", "address": "333 18th Avenue", "building_name": "Modern Suspension\u00a0Systems Building", "oz": "Y", "rerz": "N", "tif": "N", "tif_district": null}}, {"type": "Feature", "geometry": {"type": "Point", "coordinates": [-89.09298666412246, 42.242396682952865]}, "properties": {"id": "302-peoples-avenue", "address": "302 Peoples Avenue", "building_name": "Gunite", "oz": "Y", "rerz": "N", "tif": "N", "tif_district": null}}, {"type": "Feature", "geometry": {"type": "Point", "coordinates": [-89.08643592693623, 42.24176791449509]}, "properties": {"id": "2320-kishwaukee-street", "address": "2320 Kishwaukee Street", "building_name": "Sall Brothers", "oz": "N", "rerz": "N", "tif": "N", "tif_district": null}}, {"type": "Feature", "geometry": {"type": "Point", "coordinates": [-89.09196845086133, 42.24424324811788]}, "properties": {"id": "545-blackhawk-park-avenue", "address": "545 Blackhawk Park Avenue", "building_name": "Mattison Machine Building", "oz": "Y", "rerz": "N", "tif": "N", "tif_district": null}}, {"type": "Feature", "geometry": {"type": "Point", "coordinates": [-89.10558698385731, 42.26806743219364]}, "properties": {"id": "720-south-street", "address": "720 South Street", "building_name": "MC Products", "oz": "N", "rerz": "Y", "tif": "N", "tif_district": "West State and Kilburn"}}, {"type": "Feature", "geometry": {"type": "Point", "coordinates": [-89.0718333731524, 42.298730118920595]}, "properties": {"id": "707-fulton-avenue", "address": "707 Fulton Avenue", "building_name": "Ingersoll", "oz": "N", "rerz": "Y", "tif": "N", "tif_district": null}}, {"type": "Feature", "geometry": {"type": "Point", "coordinates": [-89.06790042575031, 42.25060326512623]}, "properties": {"id": "1820-16th-ave", "address": "1820 16th Ave", "building_name": "Colonial Desk Co.", "oz": "N", "rerz": "N", "tif": "Y", "tif_district": null}}, {"type": "Feature", "geometry": {"type": "Point", "coordinates": [-89.08815651261303, 42.24422693846583]}, "properties": {"id": "2135-kishwaukee-street", "address": "2135 Kishwaukee Street", "building_name": "Reg-Ellen Machine", "oz": "Y", "rerz": "N", "tif": "N", "tif_district": null}}, {"type": "Feature", "geometry": {"type": "Point", "coordinates": [-89.06920816128817, 42.24691208021206]}, "properties": {"id": "1919-13th-street", "address": "1919 13th Street", "building_name": "Office Works", "oz": "N", "rerz": "N", "tif": "N", "tif_district": null}}, {"type": "Feature", "geometry": {"type": "Point", "coordinates": [-89.08317101189817, 42.25568141604097]}, "properties": {"id": "1115-s-6th-street", "address": "1115 S. 6th Street", "building_name": null, "oz": "N", "rerz": "Y", "tif": "Y", "tif_district": null}}, {"type": "Feature", "geometry": {"type": "Point", "coordinates": [-89.0884776190445, 42.24678376906673]}, "properties": {"id": "1925-kishwaukee-street", "address": "1925 Kishwaukee Street", "building_name": "Rogers Heat Treating / AZZ Galvanizing", "oz": "Y", "rerz": "N", "tif": "N", "tif_district": null}}, {"type": "Feature", "geometry": {"type": "Point", "coordinates": [-89.08837491544408, 42.253347738169055]}, "properties": {"id": "620-buckbee-street", "address": "620 Buckbee Street", "building_name": "Buckbee\u00a0Seed Building", "oz": "Y", "rerz": "Y", "tif": "Y", "tif_district": "Broadway"}}, {"type": "Feature", "geometry": {"type": "Point", "coordinates": [-89.06908951201045, 42.24403131729255]}, "properties": {"id": "2136-12th-street-2", "address": "2136 12th Street", "building_name": "Greenlee Bros. Building", "oz": "N", "rerz": "N", "tif": "N", "tif_district": null}}, {"type": "Feature", "geometry": {"type": "Point", "coordinates": [-89.07615265911927, 42.24701530554449]}, "properties": {"id": "1920-9th-street", "address": "1920 9th Street", "building_name": "Rockford Drop Forge", "oz": "N", "rerz": "N", "tif": "N", "tif_district": null}}, {"type": "Feature", "geometry": {"type": "Point", "coordinates": [-89.07093643659474, 42.240783644627456]}, "properties": {"id": "2400-11th-street", "address": "2400 11th Street", "building_name": "Kishwaukee Distributers", "oz": "N", "rerz": "N", "tif": "N", "tif_district": null}}, {"type": "Feature", "geometry": {"type": "Point", "coordinates": [-89.0858011873413, 42.24070639002924]}, "properties": {"id": "725-23rd-avenue", "address": "725 23rd Avenue", "building_name": "Rockford National Furniture Co.", "oz": "N", "rerz": "N", "tif": "Y", "tif_district": "Kishwaukee/Harrison #1"}}, {"type": "Feature", "geometry": {"type": "Point", "coordinates": [-89.11599881858712, 42.268384160478625]}, "properties": {"id": "500-s-independence-street-2", "address": "500 S. Independence\u00a0Street", "building_name": "South Bldg", "oz": "Y", "rerz": "N", "tif": "Y", "tif_district": "Preston and Central"}}, {"type": "Feature", "geometry": {"type": "Point", "coordinates": [-89.10929797865137, 42.27078117135962]}, "properties": {"id": "1229-cedar-street", "address": "1229 Cedar Street", "building_name": "Water Department Stanley Pumping Station", "oz": "Y", "rerz": "N", "tif": "Y", "tif_district": "Preston and Central"}}, {"type": "Feature", "geometry": {"type": "Point", "coordinates": [-89.09416277518211, 42.24581413855761]}, "properties": {"id": "340-blackhawk-park-avenue", "address": "340 Blackhawk Park Avenue", "building_name": "Dasco Pro Inc.", "oz": "Y", "rerz": "N", "tif": "N", "tif_district": null}}, {"type": "Feature", "geometry": {"type": "Point", "coordinates": [-89.07124216969646, 42.246121532118075]}, "properties": {"id": "1936-20thave-11th-st", "address": "1936 20thAve. @ 11th St.", "building_name": "Rockford Peerless Furniture", "oz": "N", "rerz": "N", "tif": "N", "tif_district": null}}, {"type": "Feature", "geometry": {"type": "Point", "coordinates": [-89.09175872814811, 42.24585075838272]}, "properties": {"id": "440-blackhawk-park-avenue", "address": "440 Blackhawk Park Avenue", "building_name": "Fiberglass Innovations", "oz": "Y", "rerz": "N", "tif": "N", "tif_district": null}}, {"type": "Feature", "geometry": {"type": "Point", "coordinates": [-89.07503757455403, 42.25599803428006]}, "properties": {"id": "1102-10th-street", "address": "1102 10th Street", "building_name": "Saffire Grill Co.", "oz": "N", "rerz": "N", "tif": "Y", "tif_district": "Midtown"}}, {"type": "Feature", "geometry": {"type": "Point", "coordinates": [-89.0707637699417, 42.238725068593865]}, "properties": {"id": "2524-11th-street", "address": "2524 11th Street", "building_name": "Accurate Metals Illinois", "oz": "N", "rerz": "N", "tif": "N", "tif_district": null}}, {"type": "Feature", "geometry": {"type": "Point", "coordinates": [-89.1054539618868, 42.27221680544515]}, "properties": {"id": "901-cedar-street", "address": "901  Cedar Street", "building_name": "Com Ed Building", "oz": "Y", "rerz": "Y", "tif": "Y", "tif_district": "West State and Kilburn"}}, {"type": "Feature", "geometry": {"type": "Point", "coordinates": [-89.08094863538625, 42.2407434989146]}, "properties": {"id": "1025-23rd-avenue", "address": "1025 23rd Avenue", "building_name": "Mechanics Tool", "oz": "N", "rerz": "N", "tif": "Y", "tif_district": "Kishwaukee/Harrison #1"}}, {"type": "Feature", "geometry": {"type": "Point", "coordinates": [-89.1172415352772, 42.269157781567486]}, "properties": {"id": "500-s-independence-street-3", "address": "500 S. Independence\u00a0Street", "building_name": "North/South Warehouse Buildings", "oz": "Y", "rerz": "N", "tif": "Y", "tif_district": "Preston and Central"}}, {"type": "Feature", "geometry": {"type": "Point", "coordinates": [-89.1172415352772, 42.269157781567486]}, "properties": {"id": "500-s-independence-street-4", "address": "500 S. Independence\u00a0Street", "building_name": "North/South Warehouse Buildings", "oz": "Y", "rerz": "N", "tif": "Y", "tif_district": "Preston and Central"}}, {"type": "Feature", "geometry": {"type": "Point", "coordinates": [-89.10516347771633, 42.26769423791979]}, "properties": {"id": "714-south-street", "address": "714 South Street", "building_name": "South Bldg", "oz": "N", "rerz": "Y", "tif": "N", "tif_district": "West State and Kilburn"}}, {"type": "Feature", "geometry": {"type": "Point", "coordinates": [-89.06908951201045, 42.24403131729255]}, "properties": {"id": "2136-12th-street-3", "address": "2136 12th Street", "building_name": "Greenlee Bros. Building", "oz": "N", "rerz": "N", "tif": "N", "tif_district": null}}, {"type": "Feature", "geometry": {"type": "Point", "coordinates": [-89.07463578978823, 42.23815877139853]}, "properties": {"id": "2531-11th-street", "address": "2531 11th Street", "building_name": "Paoli Storage", "oz": "N", "rerz": "N", "tif": "N", "tif_district": null}}, {"type": "Feature", "geometry": {"type": "Point", "coordinates": [-89.0991519474477, 42.27013258629315]}, "properties": {"id": "315-s-court-street", "address": "315 S. Court Street", "building_name": "Railway Express Building", "oz": "N", "rerz": "Y", "tif": "N", "tif_district": null}}, {"type": "Feature", "geometry": {"type": "Point", "coordinates": [-89.07158526656924, 42.25492973930767]}, "properties": {"id": "1220-11th-street", "address": "1220 11th Street", "building_name": "Hanson Clock Co.", "oz": "N", "rerz": "N", "tif": "Y", "tif_district": "Broadway"}}, {"type": "Feature", "geometry": {"type": "Point", "coordinates": [-89.09377663795263, 42.256663023339534]}, "properties": {"id": "1123-seminary-street", "address": "1123 Seminary  Street", "building_name": "Joe Behr Iron & Metal", "oz": "Y", "rerz": "Y", "tif": "Y", "tif_district": null}}, {"type": "Feature", "geometry": {"type": "Point", "coordinates": [-89.09827709217642, 42.263173022411294]}, "properties": {"id": "126-mill-street", "address": "126 Mill Street", "building_name": "Rockford Bolt & Steel", "oz": "N", "rerz": "Y", "tif": "N", "tif_district": "South Rockford"}}, {"type": "Feature", "geometry": {"type": "Point", "coordinates": [-89.10173463618598, 42.26374717855078]}, "properties": {"id": "907-s-main-street", "address": "907 S. Main Street", "building_name": "Nelson Knitting Building", "oz": "N", "rerz": "Y", "tif": "N", "tif_district": "South Rockford"}}, {"type": "Feature", "geometry": {"type": "Point", "coordinates": [-89.10046262539373, 42.2402247893421]}, "properties": {"id": "202-quaker-road", "address": "202 Quaker Road", "building_name": "Quaker Oats", "oz": "Y", "rerz": "N", "tif": "N", "tif_district": null}}, {"type": "Feature", "geometry": {"type": "Point", "coordinates": [-89.07179997646998, 42.245322875796454]}, "properties": {"id": "2062-11th-street", "address": "2062 11th Street", "building_name": "Sun-Ray Fixture Co.", "oz": "N", "rerz": "N", "tif": "N", "tif_district": null}}, {"type": "Feature", "geometry": {"type": "Point", "coordinates": [-89.06908951201045, 42.24403131729255]}, "properties": {"id": "2136-12th-street-4", "address": "2136 12th Street", "building_name": "Greenlee Bros. Building", "oz": "N", "rerz": "N", "tif": "N", "tif_district": null}}, {"type": "Feature", "geometry": {"type": "Point", "coordinates": [-89.06787849369852, 42.25188902569326]}, "properties": {"id": "1827-broadway", "address": "1827 Broadway", "building_name": "Abrasive Precision Machining", "oz": "N", "rerz": "N", "tif": "Y", "tif_district": "Broadway"}}, {"type": "Feature", "geometry": {"type": "Point", "coordinates": [-89.07772680296004, 42.24600201105027]}, "properties": {"id": "2031-9th-street-office", "address": "2031 9th Street  (Office)", "building_name": "Rockford Drop Forge", "oz": "N", "rerz": "N", "tif": "N", "tif_district": null}}, {"type": "Feature", "geometry": {"type": "Point", "coordinates": [-89.10039234728836, 42.26865870564486]}, "properties": {"id": "502-cedar-street", "address": "502 Cedar Street", "building_name": "Bartlett/Mack Building", "oz": "N", "rerz": "Y", "tif": "Y", "tif_district": "West Side #2"}}, {"type": "Feature", "geometry": {"type": "Point", "coordinates": [-89.10057283710753, 42.26330713853971]}, "properties": {"id": "917-s-main-street", "address": "917 S. Main Street", "building_name": "Mott Brothers", "oz": "N", "rerz": "Y", "tif": "N", "tif_district": "South Rockford"}}, {"type": "Feature", "geometry": {"type": "Point", "coordinates": [-89.0964406246238, 42.272553967335405]}, "properties": {"id": "415-w-state-street", "address": "415 W. State Street", "building_name": "One Court Place", "oz": "N", "rerz": "Y", "tif": "N", "tif_district": null}}, {"type": "Feature", "geometry": {"type": "Point", "coordinates": [-89.07657359814226, 42.24756469866354]}, "properties": {"id": "1313-18th-avenue", "address": "1313 18th Avenue", "building_name": "Mechanics Universal Joint", "oz": "N", "rerz": "N", "tif": "N", "tif_district": null}}, {"type": "Feature", "geometry": {"type": "Point", "coordinates": [-89.1172415352772, 42.269157781567486]}, "properties": {"id": "500-s-independence-street-5", "address": "500 S. Independence\u00a0Street", "building_name": "North/South Warehouse Buildings", "oz": "Y", "rerz": "N", "tif": "Y", "tif_district": "Preston and Central"}}, {"type": "Feature", "geometry": {"type": "Point", "coordinates": [-89.08815911792003, 42.24602949189387]}, "properties": {"id": "2107-kishwaukee-street", "address": "2107 Kishwaukee Street", "building_name": "Counselor Scales", "oz": "Y", "rerz": "N", "tif": "N", "tif_district": null}}, {"type": "Feature", "geometry": {"type": "Point", "coordinates": [-89.06908951201045, 42.24403131729255]}, "properties": {"id": "2136-12th-street-5", "address": "2136 12th Street", "building_name": "Greenlee Bros. Building", "oz": "N", "rerz": "N", "tif": "N", "tif_district": null}}, {"type": "Feature", "geometry": {"type": "Point", "coordinates": [-89.08832403288221, 42.24357385987948]}, "properties": {"id": "2219-kishwaukee-street", "address": "2219 Kishwaukee Street", "building_name": "2219 Kishwaukee", "oz": "Y", "rerz": "N", "tif": "N", "tif_district": null}}, {"type": "Feature", "geometry": {"type": "Point", "coordinates": [-89.07772680296004, 42.24600201105027]}, "properties": {"id": "2031-9th-street-office-2", "address": "2031 9th Street  (Office)", "building_name": "Rockford Drop Forge", "oz": "N", "rerz": "N", "tif": "N", "tif_district": null}}, {"type": "Feature", "geometry": {"type": "Point", "coordinates": [-89.06873148939651, 42.249299076474124]}, "properties": {"id": "1802-17th-ave", "address": "1802 17th Ave.", "building_name": null, "oz": "N", "rerz": "N", "tif": "N", "tif_district": null}}, {"type": "Feature", "geometry": {"type": "Point", "coordinates": [-89.07291730896605, 42.25616311243145]}, "properties": {"id": "1100-11th-street", "address": "1100 11th Street", "building_name": "Rockford Standard Furniture/Benson Stone", "oz": "N", "rerz": "N", "tif": "Y", "tif_district": "Midtown"}}, {"type": "Feature", "geometry": {"type": "Point", "coordinates": [-89.06908951201045, 42.24403131729255]}, "properties": {"id": "2136-12th-street-6", "address": "2136 12th Street", "building_name": "Greenlee Bros. Building", "oz": "N", "rerz": "N", "tif": "N", "tif_district": null}}, {"type": "Feature", "geometry": {"type": "Point", "coordinates": [-89.1172415352772, 42.269157781567486]}, "properties": {"id": "500-s-independence-street-6", "address": "500 S. Independence\u00a0Street", "building_name": "North/South Warehouse Buildings", "oz": "Y", "rerz": "N", "tif": "Y", "tif_district": "Preston and Central"}}, {"type": "Feature", "geometry": {"type": "Point", "coordinates": [-89.08816360965989, 42.24392724716535]}, "properties": {"id": "2215-kishwaukee-street", "address": "2215 Kishwaukee Street", "building_name": "Dasco", "oz": "Y", "rerz": "N", "tif": "N", "tif_district": null}}, {"type": "Feature", "geometry": {"type": "Point", "coordinates": [-89.09557717024637, 42.267773787325496]}, "properties": {"id": "320-s-wyman", "address": "320 S. Wyman", "building_name": "Lorden Building", "oz": "N", "rerz": "Y", "tif": "Y", "tif_district": "West Side #2"}}, {"type": "Feature", "geometry": {"type": "Point", "coordinates": [-89.09040536020547, 42.24624754709359]}, "properties": {"id": "530-blackhawk-park-avenue", "address": "530 Blackhawk Park Avenue", "building_name": "Shanahowe Transportation", "oz": "Y", "rerz": "N", "tif": "N", "tif_district": null}}, {"type": "Feature", "geometry": {"type": "Point", "coordinates": [-89.07866330396783, 42.238988208724]}, "properties": {"id": "2501-9th-street", "address": "2501 9th Street", "building_name": "Rockford Products", "oz": "N", "rerz": "N", "tif": "Y", "tif_district": "Kishwaukee/Harrison #1"}}, {"type": "Feature", "geometry": {"type": "Point", "coordinates": [-89.10333880876632, 42.27206753906575]}, "properties": {"id": "814-chestnut", "address": "814 Chestnut", "building_name": "Barnes Drill Building", "oz": "Y", "rerz": "Y", "tif": "N", "tif_district": "West State and Kilburn"}}, {"type": "Feature", "geometry": {"type": "Point", "coordinates": [-89.07503757455403, 42.25599803428006]}, "properties": {"id": "1102-10th-street-2", "address": "1102 10th Street", "building_name": "Saffire Grill Co.", "oz": "N", "rerz": "N", "tif": "Y", "tif_district": "Midtown"}}, {"type": "Feature", "geometry": {"type": "Point", "coordinates": [-89.10385424474383, 42.26993314946408]}, "properties": {"id": "631-cedar-street-2", "address": "631 Cedar Street", "building_name": "Mike Harris Building", "oz": "Y", "rerz": "Y", "tif": "N", "tif_district": "West State and Kilburn"}}, {"type": "Feature", "geometry": {"type": "Point", "coordinates": [-89.09236021770485, 42.256742761248084]}, "properties": {"id": "1123-seminary-street-2", "address": "1123 Seminary  Street", "building_name": "Joe Behr Iron & Metal", "oz": "Y", "rerz": "Y", "tif": "Y", "tif_district": null}}, {"type": "Feature", "geometry": {"type": "Point", "coordinates": [-89.09904323485432, 42.26378428881201]}, "properties": {"id": "216-220-mill-street", "address": "216-220 Mill Street", "building_name": "Woodward Governor Building", "oz": "N", "rerz": "Y", "tif": "N", "tif_district": "South Rockford"}}, {"type": "Feature", "geometry": {"type": "Point", "coordinates": [-89.0965523149266, 42.260847568546524]}, "properties": {"id": "121-loomis-street", "address": "121 Loomis Street", "building_name": "Grafcor Packaging Co.", "oz": "N", "rerz": "Y", "tif": "N", "tif_district": "South Rockford"}}, {"type": "Feature", "geometry": {"type": "Point", "coordinates": [-89.10173463618598, 42.26374717855078]}, "properties": {"id": "907-s-main-street-2", "address": "907 S. Main Street", "building_name": "Nelson Knitting Building", "oz": "N", "rerz": "Y", "tif": "N", "tif_district": "South Rockford"}}, {"type": "Feature", "geometry": {"type": "Point", "coordinates": [-89.0852863342312, 42.23973307819289]}, "properties": {"id": "2500-kishwaukee-street", "address": "2500 Kishwaukee Street", "building_name": "Bourn & Koch", "oz": "N", "rerz": "N", "tif": "Y", "tif_district": null}}, {"type": "Feature", "geometry": {"type": "Point", "coordinates": [-89.1007645860843, 42.263803668548086]}, "properties": {"id": "905-s-main-street", "address": "905 S. Main Street", "building_name": "International Harvester/ Mott Brothers Building", "oz": "N", "rerz": "Y", "tif": "N", "tif_district": "South Rockford"}}, {"type": "Feature", "geometry": {"type": "Point", "coordinates": [-89.07099567226403, 42.25500434299421]}, "properties": {"id": "1220-11th-street-2", "address": "1220 11th Street", "building_name": "Hanson Clock Co.", "oz": "N", "rerz": "N", "tif": "Y", "tif_district": "Broadway"}}, {"type": "Feature", "geometry": {"type": "Point", "coordinates": [-89.08813127089414, 42.24740353305183]}, "properties": {"id": "1907-kishwaukee-street", "address": "1907 Kishwaukee Street", "building_name": "Anderson\u00a0Brothers Building", "oz": "Y", "rerz": "N", "tif": "N", "tif_district": null}}, {"type": "Feature", "geometry": {"type": "Point", "coordinates": [-89.06498655167401, 42.23956996797199]}, "properties": {"id": "2020-harrison-avenue", "address": "2020 Harrison\u00a0Avenue", "building_name": "Borg Warner", "oz": "N", "rerz": "N", "tif": "Y", "tif_district": "Kishwaukee/Harrison #2"}}, {"type": "Feature", "geometry": {"type": "Point", "coordinates": [-89.07856145114302, 42.2460206791819]}, "properties": {"id": "1202-20th-avenue", "address": "1202 20th Avenue", "building_name": null, "oz": "N", "rerz": "N", "tif": "N", "tif_district": null}}]}